STARLETTE               
1 07646U 75010A   13128.53877794 -.00000127  00000-0  14685-4 0  2364
2 07646  49.8233 281.2273 0205665  87.7711   1.3108 13.82284318932281
LAGEOS 1                
1 08820U 76039A   13127.48329477  .00000025  00000-0  00000+0 0  4565
2 08820 109.8531 338.9579 0044741 247.8951  36.7813  6.38664818607738
AJISAI (EGS)            
1 16908U 86061A   13127.51306647 -.00000130  00000-0 -23386-3 0  1163
2 16908  50.0078 111.9130 0011324 232.6528 239.9920 12.44473121884453
LAGEOS 2                
1 22195U 92070B   13128.40630160 -.00000009  00000-0  00000+0 0  6864
2 22195  52.6689  52.6051 0137312 254.1624 257.1103  6.47293945485675
STELLA                  
1 22824U 93061B   13127.54213006 -.00000006  00000-0  15402-4 0  4631
2 22824  98.6380  67.2468 0007587 103.8877  13.9650 14.27317803 21797
WESTPAC                 
1 25398U 98043E   13127.98868007 -.00000033  00000-0  39149-5 0  6952
2 25398  98.4204  96.0366 0001985  63.0803 336.2926 14.22732033770034
GRACE-1                 
1 27391U 02012A   13127.65160269  .00005952  00000-0  13506-3 0  3810
2 27391  89.0217 172.1693 0010769 331.6482 175.0450 15.42803024623473
GRACE-2                 
1 27392U 02012B   13128.15390557  .00005372  00000-0  12175-3 0  3831
2 27392  89.0216 172.1304 0011539 330.7940  86.0359 15.42811018623557
GOCE                    
1 34602U 09013A   13128.49862130 -.00001350  19158-5 -63900-6 0  6278
2 34602  96.5689 156.9744 0003244 312.0692 181.7062 16.13393566242839
LARES                   
1 38077U 12006A   13128.25431350 -.00000022  00000-0  10000-3 0  2376
2 38077  69.4906 190.4773 0011214 244.7722 115.2134 12.54930072 56459
